start=new Date('2022-04-14T00:00:00.000Z').valueOf();
sats=[{"FILE":"3400454","PERIAPSIS":"398.301","PERIOD":"92.541","SEMIMAJOR_AXIS":"6777.210","ARG_OF_PERICENTER":"94.4609","OBJECT_ID":"2022-025AD","ELEMENT_SET_NO":"999","MEAN_MOTION":"15.56060160","MEAN_ELEMENT_THEORY":"SGP4","OBJECT_NAME":"STARLINK-3655","MEAN_ANOMALY":"241.5182","MEAN_MOTION_DOT":"-0.00715740","TLE_LINE1":"1 51983U 22025AD  22103.91667824 -.00715740  00000-0 -11019-1 0  9997","COUNTRY_CODE":"US","REV_AT_EPOCH":"370","GP_ID":"201178551","RCS_SIZE":"LARGE","APOAPSIS":"399.849","NORAD_CAT_ID":"51983","OBJECT_TYPE":"PAYLOAD","TIME_SYSTEM":"UTC","RA_OF_ASC_NODE":"325.5281","SITE":"AFETR","LAUNCH_DATE":"2022-03-09","EPOCH":"2022-04-13T22:00:00.999936","CLASSIFICATION_TYPE":"U","MEAN_MOTION_DDOT":"0.0000000000000","INCLINATION":"53.2176","REF_FRAME":"TEME","ECCENTRICITY":"0.00011420","DECAY_DATE":null,"CENTER_NAME":"EARTH","EPHEMERIS_TYPE":"0","BSTAR":"-0.01101900000000","TLE_LINE2":"2 51983  53.2176 325.5281 0001142  94.4609 241.5182 15.56060160  3701"},{"DECAY_DATE":null,"ECCENTRICITY":"0.00013470","REF_FRAME":"TEME","BSTAR":"-0.01160800000000","TLE_LINE2":"2 51984  53.2176 325.5194 0001347  62.6511 215.4098 15.54577316  3701","CENTER_NAME":"EARTH","EPHEMERIS_TYPE":"0","INCLINATION":"53.2176","EPOCH":"2022-04-13T22:00:00.999936","SITE":"AFETR","LAUNCH_DATE":"2022-03-09","MEAN_MOTION_DDOT":"0.0000000000000","CLASSIFICATION_TYPE":"U","APOAPSIS":"404.297","GP_ID":"201178001","RCS_SIZE":"LARGE","TIME_SYSTEM":"UTC","RA_OF_ASC_NODE":"325.5194","NORAD_CAT_ID":"51984","OBJECT_TYPE":"PAYLOAD","COUNTRY_CODE":"US","REV_AT_EPOCH":"370","MEAN_ANOMALY":"215.4098","OBJECT_NAME":"STARLINK-3664","MEAN_MOTION_DOT":"-0.00713853","TLE_LINE1":"1 51984U 22025AE  22103.91667824 -.00713853  00000-0 -11608-1 0  9995","PERIAPSIS":"402.470","SEMIMAJOR_AXIS":"6781.519","PERIOD":"92.630","OBJECT_ID":"2022-025AE","ARG_OF_PERICENTER":"62.6511","FILE":"3400454","MEAN_MOTION":"15.54577316","MEAN_ELEMENT_THEORY":"SGP4","ELEMENT_SET_NO":"999"},{"INCLINATION":"53.2176","LAUNCH_DATE":"2022-03-09","SITE":"AFETR","EPOCH":"2022-04-13T22:00:00.999936","CLASSIFICATION_TYPE":"U","MEAN_MOTION_DDOT":"0.0000000000000","REF_FRAME":"TEME","DECAY_DATE":null,"ECCENTRICITY":"0.00011040","EPHEMERIS_TYPE":"0","CENTER_NAME":"EARTH","BSTAR":"-0.01092100000000","TLE_LINE2":"2 51985  53.2176 325.5257 0001104  90.5983 256.8986 15.56316024  3700","MEAN_MOTION_DOT":"-0.00716142","OBJECT_NAME":"STARLINK-3651","MEAN_ANOMALY":"256.8986","TLE_LINE1":"1 51985U 22025AF  22103.91667824 -.00716142  00000-0 -10921-1 0  9997","FILE":"3400454","ARG_OF_PERICENTER":"90.5983","OBJECT_ID":"2022-025AF","PERIAPSIS":"397.584","PERIOD":"92.526","SEMIMAJOR_AXIS":"6776.467","ELEMENT_SET_NO":"999","MEAN_ELEMENT_THEORY":"SGP4","MEAN_MOTION":"15.56316024","RCS_SIZE":"LARGE","GP_ID":"201178417","APOAPSIS":"399.080","OBJECT_TYPE":"PAYLOAD","NORAD_CAT_ID":"51985","RA_OF_ASC_NODE":"325.5257","TIME_SYSTEM":"UTC","COUNTRY_CODE":"US","REV_AT_EPOCH":"370"},{"FILE":"3400454","SEMIMAJOR_AXIS":"6780.775","PERIAPSIS":"401.813","PERIOD":"92.614","ARG_OF_PERICENTER":"89.8502","OBJECT_ID":"2022-025AG","ELEMENT_SET_NO":"999","MEAN_MOTION":"15.54833121","MEAN_ELEMENT_THEORY":"SGP4","OBJECT_NAME":"STARLINK-3645","MEAN_ANOMALY":"200.6189","MEAN_MOTION_DOT":"-0.00714178","TLE_LINE1":"1 51986U 22025AG  22103.91667824 -.00714178  00000-0 -11505-1 0  9994","COUNTRY_CODE":"US","REV_AT_EPOCH":"370","GP_ID":"201177909","RCS_SIZE":"LARGE","APOAPSIS":"403.467","NORAD_CAT_ID":"51986","OBJECT_TYPE":"PAYLOAD","RA_OF_ASC_NODE":"325.5187","TIME_SYSTEM":"UTC","SITE":"AFETR","LAUNCH_DATE":"2022-03-09","EPOCH":"2022-04-13T22:00:00.999936","CLASSIFICATION_TYPE":"U","MEAN_MOTION_DDOT":"0.0000000000000","INCLINATION":"53.2176","REF_FRAME":"TEME","DECAY_DATE":null,"ECCENTRICITY":"0.00012200","CENTER_NAME":"EARTH","EPHEMERIS_TYPE":"0","TLE_LINE2":"2 51986  53.2176 325.5187 0001220  89.8502 200.6189 15.54833121  3702","BSTAR":"-0.01150500000000"},{"INCLINATION":"53.2176","EPOCH":"2022-04-13T22:00:00.999936","SITE":"AFETR","LAUNCH_DATE":"2022-03-09","MEAN_MOTION_DDOT":"0.0000000000000","CLASSIFICATION_TYPE":"U","ECCENTRICITY":"0.00012660","DECAY_DATE":null,"REF_FRAME":"TEME","BSTAR":"-0.01170900000000","TLE_LINE2":"2 51987  53.2176 325.5196 0001266  80.2586 185.2405 15.54321407  3708","CENTER_NAME":"EARTH","EPHEMERIS_TYPE":"0","OBJECT_NAME":"STARLINK-3644","MEAN_ANOMALY":"185.2405","MEAN_MOTION_DOT":"-0.00713337","TLE_LINE1":"1 51987U 22025AH  22103.91667824 -.00713337  00000-0 -11709-1 0  9997","PERIAPSIS":"403.269","PERIOD":"92.645","SEMIMAJOR_AXIS":"6782.263","OBJECT_ID":"2022-025AH","ARG_OF_PERICENTER":"80.2586","FILE":"3400454","MEAN_MOTION":"15.54321407","MEAN_ELEMENT_THEORY":"SGP4","ELEMENT_SET_NO":"999","APOAPSIS":"404.987","GP_ID":"201178510","RCS_SIZE":"LARGE","TIME_SYSTEM":"UTC","RA_OF_ASC_NODE":"325.5196","NORAD_CAT_ID":"51987","OBJECT_TYPE":"PAYLOAD","COUNTRY_CODE":"US","REV_AT_EPOCH":"370"},{"TLE_LINE2":"2 51988  53.2176 325.5183 0001195  93.6346 202.9811 15.54961012  3708","BSTAR":"-0.01145300000000","EPHEMERIS_TYPE":"0","CENTER_NAME":"EARTH","ECCENTRICITY":"0.00011950","DECAY_DATE":null,"REF_FRAME":"TEME","INCLINATION":"53.2176","MEAN_MOTION_DDOT":"0.0000000000000","CLASSIFICATION_TYPE":"U","EPOCH":"2022-04-13T22:00:00.999936","LAUNCH_DATE":"2022-03-09","SITE":"AFETR","RA_OF_ASC_NODE":"325.5183","TIME_SYSTEM":"UTC","OBJECT_TYPE":"PAYLOAD","NORAD_CAT_ID":"51988","APOAPSIS":"403.078","RCS_SIZE":"LARGE","GP_ID":"201178326","REV_AT_EPOCH":"370","COUNTRY_CODE":"US","TLE_LINE1":"1 51988U 22025AJ  22103.91667824 -.00714304  00000-0 -11453-1 0  9999","MEAN_MOTION_DOT":"-0.00714304","MEAN_ANOMALY":"202.9811","OBJECT_NAME":"STARLINK-3640","MEAN_ELEMENT_THEORY":"SGP4","MEAN_MOTION":"15.54961012","ELEMENT_SET_NO":"999","OBJECT_ID":"2022-025AJ","ARG_OF_PERICENTER":"93.6346","PERIAPSIS":"401.458","PERIOD":"92.607","SEMIMAJOR_AXIS":"6780.403","FILE":"3400454"},{"REF_FRAME":"TEME","ECCENTRICITY":"0.00013410","DECAY_DATE":null,"CENTER_NAME":"EARTH","EPHEMERIS_TYPE":"0","BSTAR":"-0.01165600000000","TLE_LINE2":"2 51989  53.2176 325.5195 0001341  65.2812 206.5179 15.54449302  3708","SITE":"AFETR","LAUNCH_DATE":"2022-03-09","EPOCH":"2022-04-13T22:00:00.999936","CLASSIFICATION_TYPE":"U","MEAN_MOTION_DDOT":"0.0000000000000","INCLINATION":"53.2176","COUNTRY_CODE":"US","REV_AT_EPOCH":"370","GP_ID":"201178094","RCS_SIZE":"LARGE","APOAPSIS":"404.665","NORAD_CAT_ID":"51989","OBJECT_TYPE":"PAYLOAD","TIME_SYSTEM":"UTC","RA_OF_ASC_NODE":"325.5195","FILE":"3400454","PERIAPSIS":"402.846","SEMIMAJOR_AXIS":"6781.891","PERIOD":"92.637","ARG_OF_PERICENTER":"65.2812","OBJECT_ID":"2022-025AK","ELEMENT_SET_NO":"999","MEAN_MOTION":"15.54449302","MEAN_ELEMENT_THEORY":"SGP4","MEAN_ANOMALY":"206.5179","OBJECT_NAME":"STARLINK-3642","MEAN_MOTION_DOT":"-0.00713464","TLE_LINE1":"1 51989U 22025AK  22103.91667824 -.00713464  00000-0 -11656-1 0  9991"},{"TLE_LINE2":"2 51990  53.2152 324.7804 0001127 112.1475 218.2137 15.73238061  3704","BSTAR":"-0.00026016000000","EPHEMERIS_TYPE":"0","CENTER_NAME":"EARTH","DECAY_DATE":null,"ECCENTRICITY":"0.00011270","REF_FRAME":"TEME","MEAN_MOTION_DDOT":"0.0000000000000","CLASSIFICATION_TYPE":"U","EPOCH":"2022-04-13T22:00:00.999936","LAUNCH_DATE":"2022-03-09","SITE":"AFETR","INCLINATION":"53.2152","REV_AT_EPOCH":"370","COUNTRY_CODE":"US","TIME_SYSTEM":"UTC","RA_OF_ASC_NODE":"324.7804","OBJECT_TYPE":"PAYLOAD","NORAD_CAT_ID":"51990","APOAPSIS":"350.410","RCS_SIZE":"LARGE","GP_ID":"201178235","MEAN_ELEMENT_THEORY":"SGP4","MEAN_MOTION":"15.73238061","ELEMENT_SET_NO":"999","OBJECT_ID":"2022-025AL","ARG_OF_PERICENTER":"112.1475","PERIAPSIS":"348.893","SEMIMAJOR_AXIS":"6727.787","PERIOD":"91.531","FILE":"3400454","TLE_LINE1":"1 51990U 22025AL  22103.91667824 -.00037030  00000-0 -26016-3 0  9999","MEAN_MOTION_DOT":"-0.00037030","MEAN_ANOMALY":"218.2137","OBJECT_NAME":"STARLINK-3657"},{"RA_OF_ASC_NODE":"325.5189","TIME_SYSTEM":"UTC","NORAD_CAT_ID":"51991","OBJECT_TYPE":"PAYLOAD","APOAPSIS":"403.878","GP_ID":"201178552","RCS_SIZE":"LARGE","REV_AT_EPOCH":"370","COUNTRY_CODE":"US","TLE_LINE1":"1 51991U 22025AM  22103.91667824 -.00713877  00000-0 -11554-1 0  9999","OBJECT_NAME":"STARLINK-3652","MEAN_ANOMALY":"212.3890","MEAN_MOTION_DOT":"-0.00713877","MEAN_MOTION":"15.54705175","MEAN_ELEMENT_THEORY":"SGP4","ELEMENT_SET_NO":"999","SEMIMAJOR_AXIS":"6781.147","PERIAPSIS":"402.146","PERIOD":"92.622","ARG_OF_PERICENTER":"71.8953","OBJECT_ID":"2022-025AM","FILE":"3400454","TLE_LINE2":"2 51991  53.2176 325.5189 0001277  71.8953 212.3890 15.54705175  3709","BSTAR":"-0.01155400000000","CENTER_NAME":"EARTH","EPHEMERIS_TYPE":"0","DECAY_DATE":null,"ECCENTRICITY":"0.00012770","REF_FRAME":"TEME","INCLINATION":"53.2176","MEAN_MOTION_DDOT":"0.0000000000000","CLASSIFICATION_TYPE":"U","EPOCH":"2022-04-13T22:00:00.999936","SITE":"AFETR","LAUNCH_DATE":"2022-03-09"},{"TLE_LINE1":"1 51992U 22025AN  22103.91667824 -.00037391  00000-0 -26266-3 0  9998","MEAN_ANOMALY":"208.2027","OBJECT_NAME":"STARLINK-3643","MEAN_MOTION_DOT":"-0.00037391","ELEMENT_SET_NO":"999","MEAN_MOTION":"15.73246387","MEAN_ELEMENT_THEORY":"SGP4","FILE":"3400454","PERIAPSIS":"348.872","SEMIMAJOR_AXIS":"6727.763","PERIOD":"91.530","ARG_OF_PERICENTER":"124.0511","OBJECT_ID":"2022-025AN","NORAD_CAT_ID":"51992","OBJECT_TYPE":"PAYLOAD","RA_OF_ASC_NODE":"324.7763","TIME_SYSTEM":"UTC","GP_ID":"201178002","RCS_SIZE":"LARGE","APOAPSIS":"350.384","REV_AT_EPOCH":"370","COUNTRY_CODE":"US","INCLINATION":"53.2152","CLASSIFICATION_TYPE":"U","MEAN_MOTION_DDOT":"0.0000000000000","SITE":"AFETR","LAUNCH_DATE":"2022-03-09","EPOCH":"2022-04-13T22:00:00.999936","CENTER_NAME":"EARTH","EPHEMERIS_TYPE":"0","BSTAR":"-0.00026266000000","TLE_LINE2":"2 51992  53.2152 324.7763 0001124 124.0511 208.2027 15.73246387  3707","REF_FRAME":"TEME","DECAY_DATE":null,"ECCENTRICITY":"0.00011240"}];
